NORAD_CAT_ID,OBJECT_NAME,OBJECT_TYPE,EPOCH,MEAN_MOTION,ECCENTRICITY,INCLINATION,RA_OF_ASC_NODE,ARG_OF_PERICENTER,MEAN_ANOMALY,BSTAR,MEAN_MOTION_DOT,MEAN_MOTION_DDOT,TLE_LINE0,TLE_LINE1,TLE_LINE2,SEMIMAJOR_AXIS,PERIOD,APOGEE,PERIGEE,DECAYED
49728.0,STARLINK-3240,PAYLOAD,2023-01-15 21:33:41,15.08847026,0.0002721,53.2136,276.2435,41.4808,318.6391,0.00032453,4.881e-05,0.0,0 STARLINK-3240,1 49728U 21115E   23015.89839803  .00004881  00000-0  32453-3 0  9990,2 49728  53.2136 276.2435 0002721  41.4808 318.6391 15.08847026 61962,6917.859,95.437,541.606,537.842,0.0
49728.0,STARLINK-3240,PAYLOAD,2023-01-16 10:16:46,15.08828464,0.0002142,53.2147,273.8636,44.3358,315.7806,-0.00036298,-6.059e-05,0.0,0 STARLINK-3240,1 49728U 21115E   23016.42831970 -.00006059  00000-0 -36298-3 0  9999,2 49728  53.2147 273.8636 0002142  44.3358 315.7806 15.08828464 63156,6917.916,95.438,541.262,538.299,0.0
49728.0,STARLINK-3240,PAYLOAD,2023-01-16 19:49:06,15.08818361,0.0002121999999999,53.2138,272.0794,46.7737,313.3432,-0.00038151,-6.351e-05,0.0,0 STARLINK-3240,1 49728U 21115E   23016.82576702 -.00006351  00000-0 -38151-3 0  9997,2 49728  53.2138 272.0794 0002122  46.7737 313.3432 15.08818361 62105,6917.946999999999,95.439,541.28,538.344,0.0
49728.0,STARLINK-3240,PAYLOAD,2023-01-17 10:07:35,15.08825262,0.0001989,53.2148,269.4039,51.2965,308.8205,0.00060943,9.42e-05,0.0,0 STARLINK-3240,1 49728U 21115E   23017.42193452  .00009420  00000-0  60943-3 0  9993,2 49728  53.2148 269.4039 0001989  51.2965 308.8205 15.08825262 62196,6917.925,95.438,541.1659999999999,538.414,0.0
49728.0,STARLINK-3240,PAYLOAD,2023-01-17 21:15:17,15.08836574,0.0002000999999999,53.2148,267.3228,52.7246,307.3928,0.00080372,0.00012525,0.0,0 STARLINK-3240,1 49728U 21115E   23017.88561767  .00012525  00000-0  80372-3 0  9999,2 49728  53.2148 267.3228 0002001  52.7246 307.3928 15.08836574 62269,6917.891,95.438,541.14,538.372,0.0
49728.0,STARLINK-3240,PAYLOAD,2023-01-18 00:26:03,15.08846317,0.0001988,53.2152,266.7281,53.2288,306.8886,0.0010565,0.00016569,0.0,0 STARLINK-3240,1 49728U 21115E   23018.01809667  .00016569  00000-0  10565-2 0  9997,2 49728  53.2152 266.7281 0001988  53.2288 306.8886 15.08846317 63399,6917.861,95.437,541.101,538.351,0.0
49728.0,STARLINK-3240,PAYLOAD,2023-01-18 09:58:22,15.08832537,0.0002029999999999,53.2169,264.9433,65.0391,295.0811,0.00092601,0.00014477,0.0,0 STARLINK-3240,1 49728U 21115E   23018.41554371  .00014477  00000-0  92601-3 0  9998,2 49728  53.2169 264.9433 0002030  65.0391 295.0811 15.08832537 63454,6917.903,95.438,541.173,538.364,0.0
49728.0,STARLINK-3240,PAYLOAD,2023-01-18 21:06:04,15.08840354,0.0001599,53.2152,262.8621,66.99,293.126,0.00070782,0.00010995,0.0,0 STARLINK-3240,1 49728U 21115E   23018.87922439  .00010995  00000-0  70782-3 0  9999,2 49728  53.2152 262.8621 0001599  66.9900 293.1260 15.08840354 62415,6917.879,95.438,540.85,538.638,0.0
49728.0,STARLINK-3240,PAYLOAD,2023-01-18 22:41:28,15.08838357,0.0001736,53.2161,262.5639,63.854,296.263,0.00061256,9.474e-05,0.0,0 STARLINK-3240,1 49728U 21115E   23018.94546504  .00009474  00000-0  61256-3 0  9998,2 49728  53.2161 262.5639 0001736  63.8540 296.2630 15.08838357 63539,6917.885,95.438,540.951,538.549,0.0
49728.0,STARLINK-3240,PAYLOAD,2023-01-20 01:43:00,15.08863217,0.0001645,53.2157,257.5079,66.4449,293.6716,0.00080315,0.00012525,0.0,0 STARLINK-3240,1 49728U 21115E   23020.07153878  .00012525  00000-0  80315-3 0  9991,2 49728  53.2157 257.5079 0001645  66.4449 293.6716 15.08863217 63700,6917.809,95.436,540.812,538.536,0.0
49728.0,STARLINK-3240,PAYLOAD,2023-01-21 01:33:47,15.08863921,0.0001512,53.2152,253.048,69.9282,290.1872,0.00076091,0.00011851,0.0,0 STARLINK-3240,1 49728U 21115E   23021.06513229  .00011851  00000-0  76091-3 0  9998,2 49728  53.2152 253.0480 0001512  69.9282 290.1872 15.08863921 63851,6917.807,95.436,540.7180000000001,538.626,0.0
49728.0,STARLINK-3240,PAYLOAD,2023-01-21 07:55:19,15.08853368,0.0001561999999999,53.2152,251.8591,77.3435,282.7732,0.00050874,7.821e-05,0.0,0 STARLINK-3240,1 49728U 21115E   23021.33009257  .00007821  00000-0  50874-3 0  9992,2 49728  53.2152 251.8591 0001562  77.3435 282.7732 15.08853368 63898,6917.84,95.437,540.785,538.624,0.0
49728.0,STARLINK-3240,PAYLOAD,2023-01-22 07:46:07,15.08848674,0.0002508999999999,53.215,247.399,83.8935,276.2343,0.00053643,8.262e-05,0.0,0 STARLINK-3240,1 49728U 21115E   23022.32369655  .00008262  00000-0  53643-3 0  9990,2 49728  53.2150 247.3990 0002509  83.8935 276.2343 15.08848674 64046,6917.854,95.437,541.455,537.9830000000001,0.0
49728.0,STARLINK-3240,PAYLOAD,2023-01-23 01:15:21,15.08841065,0.0001250999999999,53.2154,244.1267,91.0247,269.0888,0.00042575,6.495e-05,0.0,0 STARLINK-3240,1 49728U 21115E   23023.05233301  .00006495  00000-0  42575-3 0  9997,2 49728  53.2154 244.1267 0001251  91.0247 269.0888 15.08841065 64155,6917.877,95.437,540.6080000000001,538.877,0.0
49728.0,STARLINK-3240,PAYLOAD,2023-01-24 01:06:08,15.08838616,0.0001276,53.2153,239.6655,96.7246,263.3891,0.00039245,5.963e-05,0.0,0 STARLINK-3240,1 49728U 21115E   23024.04593648  .00005963  00000-0  39245-3 0  9999,2 49728  53.2153 239.6655 0001276  96.7246 263.3891 15.08838616 64308,6917.885,95.438,540.632,538.867,0.0
49728.0,STARLINK-3240,PAYLOAD,2023-01-25 07:18:28,15.08840617,0.0001301,53.2153,234.0154,88.4648,271.6493,0.00010173,1.332e-05,0.0,0 STARLINK-3240,1 49728U 21115E   23025.30449603  .00001332  00000-0  10173-3 0  9995,2 49728  53.2153 234.0154 0001301  88.4648 271.6493 15.08840617 64498,6917.879,95.438,540.644,538.8430000000001,0.0
49728.0,STARLINK-3240,PAYLOAD,2023-01-25 13:40:01,15.08839269,0.0001419,53.2157,232.8287,78.5507,281.5645,0.00010773,1.427e-05,0.0,0 STARLINK-3240,1 49728U 21115E   23025.56945889  .00001427  00000-0  10773-3 0  9991,2 49728  53.2157 232.8287 0001419  78.5507 281.5645 15.08839269 63421,6917.883000000001,95.438,540.729,538.766,0.0
49728.0,STARLINK-3240,PAYLOAD,2023-01-25 20:01:33,15.08839171,0.0001343,53.2154,231.6382,83.6469,276.4676,5.9771e-05,6.63e-06,0.0,0 STARLINK-3240,1 49728U 21115E   23025.83441863  .00000663  00000-0  59771-4 0  9997,2 49728  53.2154 231.6382 0001343  83.6469 276.4676 15.08839171 63464,6917.883000000001,95.438,540.677,538.819,0.0
49728.0,STARLINK-3240,PAYLOAD,2023-01-26 11:55:24,15.08844119,0.0001341999999999,53.2159,228.6641,85.7779,274.3366,0.00016678,2.368e-05,0.0,0 STARLINK-3240,1 49728U 21115E   23026.49681607  .00002368  00000-0  16678-3 0  9994,2 49728  53.2159 228.6641 0001342  85.7779 274.3366 15.08844119 63561,6917.868,95.437,540.661,538.804,0.0
49728.0,STARLINK-3240,PAYLOAD,2023-01-26 19:52:20,15.08847144,0.0001337,53.2159,227.1772,85.9077,274.2068,0.00019118,2.757e-05,0.0,0 STARLINK-3240,1 49728U 21115E   23026.82801396  .00002757  00000-0  19118-3 0  9994,2 49728  53.2159 227.1772 0001337  85.9077 274.2068 15.08847144 64725,6917.859,95.437,540.648,538.799,0.0
49728.0,STARLINK-3240,PAYLOAD,2023-01-27 13:21:35,15.08838195,0.0001296,53.2159,223.9062,84.9322,275.1818,8.3825e-05,1.046e-05,0.0,0 STARLINK-3240,1 49728U 21115E   23027.55665788  .00001046  00000-0  83825-4 0  9995,2 49728  53.2159 223.9062 0001296  84.9322 275.1818 15.08838195 63725,6917.886,95.438,540.6469999999999,538.854,0.0
49728.0,STARLINK-3240,PAYLOAD,2023-01-27 19:43:07,15.08838939,0.0001284999999999,53.2166,222.7163,88.6489,271.465,0.00010273,1.347e-05,0.0,0 STARLINK-3240,1 49728U 21115E   23027.82161731  .00001347  00000-0  10273-3 0  9994,2 49728  53.2166 222.7163 0001285  88.6489 271.4650 15.08838939 64871,6917.884,95.438,540.638,538.86,0.0
49728.0,STARLINK-3240,PAYLOAD,2023-01-28 13:12:22,15.08839315,0.0001216,53.216,219.4444,91.0297,269.0834,3.7462e-06,-2.28e-06,0.0,0 STARLINK-3240,1 49728U 21115E   23028.55025848 -.00000228  00000-0  37462-5 0  9992,2 49728  53.2160 219.4444 0001216  91.0297 269.0834 15.08839315 63874,6917.882,95.438,540.589,538.906,0.0
49728.0,STARLINK-3240,PAYLOAD,2023-01-28 21:09:17,15.08842889,0.0001135,53.2165,217.9585,84.6121,275.5001,3.0952e-05,2.05e-06,0.0,0 STARLINK-3240,1 49728U 21115E   23028.88145507  .00000205  00000-0  30952-4 0  9993,2 49728  53.2165 217.9585 0001135  84.6121 275.5001 15.08842889 63926,6917.872,95.437,540.522,538.951,0.0
49728.0,STARLINK-3240,PAYLOAD,2023-01-28 22:44:40,15.08843332,0.0001149,53.2162,217.6609,84.7726,275.3397,3.488e-05,2.67e-06,0.0,0 STARLINK-3240,1 49728U 21115E   23028.94769456  .00000267  00000-0  34880-4 0  9997,2 49728  53.2162 217.6609 0001149  84.7726 275.3397 15.08843332 65049,6917.87,95.437,540.53,538.94,0.0
49728.0,STARLINK-3240,PAYLOAD,2023-01-29 19:24:42,15.08835389,0.0001062,53.2165,213.7951,88.6185,271.4929,3.9869e-05,3.47e-06,0.0,0 STARLINK-3240,1 49728U 21115E   23029.80882083  .00000347  00000-0  39869-4 0  9996,2 49728  53.2165 213.7951 0001062  88.6185 271.4929 15.08835389 65170,6917.894,95.438,540.494,539.025,0.0
49728.0,STARLINK-3240,PAYLOAD,2023-01-29 21:00:05,15.08836499,0.0001056,53.2166,213.4978,87.8904,272.2209,4.6169e-05,4.47e-06,0.0,0 STARLINK-3240,1 49728U 21115E   23029.87505991  .00000447  00000-0  46169-4 0  9995,2 49728  53.2166 213.4978 0001056  87.8904 272.2209 15.08836499 64071,6917.891,95.438,540.487,539.026,0.0
49728.0,STARLINK-3240,PAYLOAD,2023-01-30 12:53:56,15.0883464,0.0001114,53.2168,210.5239,91.9044,268.2075,2.5587e-05,1.19e-06,0.0,0 STARLINK-3240,1 49728U 21115E   23030.53746370  .00000119  00000-0  25587-4 0  9995,2 49728  53.2168 210.5239 0001114  91.9044 268.2075 15.08834640 64170,6917.897,95.438,540.532,538.991,0.0
49728.0,STARLINK-3240,PAYLOAD,2023-01-30 20:50:52,15.08838633,0.0001092,53.2169,209.0368,94.4005,265.7112,3.4145e-05,2.56e-06,0.0,0 STARLINK-3240,1 49728U 21115E   23030.86866134  .00000256  00000-0  34145-4 0  9994,2 49728  53.2169 209.0368 0001092  94.4005 265.7112 15.08838633 64223,6917.885,95.438,540.505,538.994,0.0
